1 27424U 02022A   11252.48136913  .00000312  00000-0  79361-4 0   594
2 27424 098.1996 191.9133 0001281 090.2450 269.8883 14.57102112497347